OBJECT_NAME,OBJECT_ID,EPOCH,MEAN_MOTION,ECCENTRICITY,INCLINATION,RA_OF_ASC_NODE,ARG_OF_PERICENTER,MEAN_ANOMALY,EPHEMERIS_TYPE,CLASSIFICATION_TYPE,NORAD_CAT_ID,ELEMENT_SET_NO,REV_AT_EPOCH,BSTAR,MEAN_MOTION_DOT,MEAN_MOTION_DDOT
STARLINK-37577,2026-127K,2026-07-06T04:14:37.800096,15.75342049,.0000785,53.1599,167.6139,94.2492,265.8618,0,U,69452,999,440,.12787E-2,.201003E-2,0
STARLINK-37500,2026-127L,2026-07-06T12:04:57.412992,15.75320641,.0001745,53.1567,166.0982,157.9950,202.1146,0,U,69453,999,445,.50678E-3,.78044E-3,0
STARLINK-37575,2026-127M,2026-07-06T05:39:56.220768,15.75322038,.0001261,53.1592,167.2701,129.6575,230.4557,0,U,69454,999,441,.11862E-2,.185916E-2,0
STARLINK-37642,2026-127N,2026-07-06T13:42:50.865984,15.75373423,.0002413,53.1564,165.8110,197.6476,162.4461,0,U,69455,999,446,.11674E-2,.183317E-2,0
STARLINK-37513,2026-127P,2026-07-06T18:00:02.998944,15.75202271,.0000576,53.1589,164.2863,110.2196,134.2088,0,U,69456,999,579,.19779E-3,.29738E-3,0
STARLINK-37563,2026-127Q,2026-07-06T19:28:42.220128,15.75321283,.0001158,53.1591,164.4605,62.3077,297.8061,0,U,69457,999,450,.16424E-2,.259941E-2,0
STARLINK-37565,2026-127R,2026-07-06T11:38:20.665824,15.75358917,.0000907,53.1585,165.9731,141.8800,218.2285,0,U,69458,999,445,.99982E-3,.1563E-2,0
STARLINK-37498,2026-127S,2026-07-06T09:01:45.892704,15.75326623,.0001575,53.1568,166.7246,129.8729,230.2430,0,U,69459,999,443,.6571E-3,.101695E-2,0
STARLINK-37384,2026-127T,2026-07-06T19:21:41.611968,15.75252138,.000091,53.1597,164.4282,119.5279,240.5832,0,U,69460,999,450,.32683E-3,.49783E-3,0
STARLINK-37707,2026-127U,2026-07-06T19:15:37.817856,15.75343376,.0001062,53.1593,164.3980,146.2248,213.8840,0,U,69461,999,450,.15178E-2,.239832E-2,0
STARLINK-37525,2026-127V,2026-07-06T13:03:10.537344,15.75300642,.0001485,53.1578,165.6308,43.9843,316.1296,0,U,69462,999,446,.48298E-3,.74249E-3,0
STARLINK-37526,2026-127W,2026-07-06T20:33:55.234656,15.75266659,.0000862,53.1576,164.0208,58.6980,301.4125,0,U,69463,999,451,.97693E-3,.152015E-2,0
STARLINK-37574,2026-127X,2026-07-06T10:00:55.711008,15.75374398,.0001452,53.1581,166.2591,135.8716,224.2420,0,U,69464,999,444,.81374E-3,.12673E-2,0
STARLINK-37535,2026-127Y,2026-07-06T20:33:26.951616,15.75264521,.0000722,53.1572,164.0186,111.2510,248.8588,0,U,69465,999,451,.80681E-3,.125016E-2,0
STARLINK-37583,2026-127Z,2026-07-06T07:43:49.419264,15.75360594,.00016331,53.1588,166.3614,78.3773,281.7430,0,U,69466,999,443,.17673329E-2,.280949E-2,0
STARLINK-37546,2026-127AA,2026-07-06T08:16:29.902656,15.75372741,.00012047,53.1565,166.5098,99.5960,260.5196,0,U,69467,999,443,.14714955E-2,.232588E-2,0
STARLINK-37532,2026-127AB,2026-07-06T07:24:13.423680,15.75312230,.00015787,53.1592,166.2714,85.3832,274.7369,0,U,69468,999,443,.12521761E-2,.196454E-2,0
STARLINK-37708,2026-127AC,2026-07-06T12:50:05.816256,15.75304051,.0000871,53.1572,165.5606,120.5281,239.5825,0,U,69469,999,446,.11817E-2,.18505E-2,0
STARLINK-37686,2026-127AD,2026-07-06T12:44:02.738400,15.75314706,.0002728,53.1582,165.5343,29.1072,331.0100,0,U,69470,999,446,.10035E-2,.1566E-2,0
STARLINK-37451,2026-127AE,2026-07-06T08:21:54.347616,15.80958444,.00011326,53.1578,165.7975,71.3275,288.7870,0,U,69471,999,444,.16515821E-2,.339763E-2,0
DTC TEST OBJECT A,2026-128A,2026-07-06T13:46:01.039296,15.53430353,.001065,55.0003,215.5326,348.5343,11.5448,0,U,69472,999,424,.16903E-3,.10444E-3,0
DTC TEST OBJECT B,2026-128B,2026-06-27T09:02:13.824960,15.56860342,.0009934,55.0021,257.9040,325.3113,34.7274,0,U,69473,999,280,.3356545E-3,.24134E-3,0
TJS-25,2026-129A,2026-07-06T19:29:51.622656,1.00267897,.0002881,5.9632,330.2942,283.0545,84.1200,0,U,69474,999,26,0,-.356E-5,0
STARLINK-37816,2026-131A,2026-07-06T18:00:02.998944,15.77632135,.0001546,97.2850,209.1619,87.3847,277.0330,0,U,69478,999,515,-.16902E-1,-.2417394E-1,0
STARLINK-37878,2026-131B,2026-07-06T15:03:48.771648,15.80856577,.0002469,97.2849,209.0203,44.5707,315.5760,0,U,69479,999,523,.11456E-2,.225483E-2,0
STARLINK-37817,2026-131C,2026-07-06T11:51:15.316128,15.80915835,.00016045,97.2845,208.8964,63.9700,296.1734,0,U,69480,999,521,.16339801E-2,.326322E-2,0
STARLINK-37727,2026-131D,2026-07-06T10:19:16.929984,15.79587509,.0001902,97.2850,208.8308,47.9830,312.1599,0,U,69481,999,520,-.5386E-2,-.882422E-2,0
STARLINK-37814,2026-131E,2026-07-06T13:19:57.709056,15.80810123,.0000829,97.2848,208.9652,138.2551,221.8781,0,U,69482,999,522,.10852E-2,.212811E-2,0
STARLINK-37869,2026-131F,2026-07-04T00:00:02.998944,15.80795949,.0001177,97.2832,206.2639,84.5685,145.4313,0,U,69483,999,471,.31925E-3,.61384E-3,0
STARLINK-37873,2026-131G,2026-07-06T08:44:44.509056,15.80855337,.00149593,97.2846,208.7667,205.5180,154.5352,0,U,69484,999,519,.19610659E-2,.396165E-2,0
